CCSDS_OEM_VERS = 1.0
CREATION_DATE  = 2017-05-11T11:19:38
ORIGINATOR     = GMAT USER

META_START
OBJECT_NAME          = MOPSSat_alt_35785_km_RAAN_90_123
OBJECT_ID            = SatId
CENTER_NAME          = Earth
REF_FRAME            = EME2000
TIME_SYSTEM          = UTC
START_TIME           = 2017-01-01T00:00:00.000
USEABLE_START_TIME   = 2017-01-01T00:00:00.000
USEABLE_STOP_TIME    = 2017-01-02T00:00:00.000
STOP_TIME            = 2017-01-02T00:00:00.000
INTERPOLATION        = Lagrange
INTERPOLATION_DEGREE = 7 
META_STOP


                                                                                   

2017-01-01T07:20:00.000  -3.315090652106692e+04  -3.651573974973809e+04   1.084844898763893e+00   1.419765639181875e+00  -2.166548731442301e+00  -1.403558358625882e-05
2017-01-01T07:20:10.000  -3.313670335845165e+04  -3.653739916965006e+04   1.084704308817141e+00   1.420866759918758e+00  -2.165335252243731e+00  -1.408240693593243e-05
2017-01-01T07:20:20.000  -3.312248918928979e+04  -3.655904645337633e+04   1.084563250611130e+00   1.421966974010342e+00  -2.164121533218204e+00  -1.412923568917632e-05
2017-01-01T07:20:30.000  -3.310826402253390e+04  -3.658068159869086e+04   1.084421724090710e+00   1.423066281944962e+00  -2.162907574805908e+00  -1.417606984883308e-05
2017-01-01T07:20:40.000  -3.309402786709198e+04  -3.660230460343324e+04   1.084279729200316e+00   1.424164684213702e+00  -2.161693377442841e+00  -1.422290941786899e-05
2017-01-01T07:20:50.000  -3.307978073201031e+04  -3.662391546522688e+04   1.084137265885743e+00   1.425262181296046e+00  -2.160478941576494e+00  -1.426975439875794e-05
2017-01-01T07:21:00.000  -3.306552262633811e+04  -3.664551418168880e+04   1.083994334092852e+00   1.426358773670566e+00  -2.159264267654220e+00  -1.431660479394120e-05
2017-01-01T07:21:10.000  -3.305125355912703e+04  -3.666710075042875e+04   1.083850933767540e+00   1.427454461814874e+00  -2.158049356123221e+00  -1.436346060582401e-05
2017-01-01T07:21:20.000  -3.303697353956971e+04  -3.668867516884338e+04   1.083707064857183e+00   1.428549246195206e+00  -2.156834207442259e+00  -1.441032183633454e-05
2017-01-01T07:21:30.000  -3.302268257681363e+04  -3.671023743439425e+04   1.083562727308718e+00   1.429643127280496e+00  -2.155618822065895e+00  -1.445718848752115e-05
2017-01-01T07:21:40.000  -3.300838068003430e+04  -3.673178754449810e+04   1.083417921069391e+00   1.430736105536818e+00  -2.154403200450693e+00  -1.450406056131692e-05
2017-01-01T07:21:50.000  -3.299406785811256e+04  -3.675332549701312e+04   1.083272646083492e+00   1.431828181452059e+00  -2.153187343027800e+00  -1.455093806058711e-05
2017-01-01T07:22:00.000  -3.297974411995716e+04  -3.677485128975264e+04   1.083126902295620e+00   1.432919355511231e+00  -2.151971250230366e+00  -1.459782098808174e-05
2017-01-01T07:22:10.000  -3.296540947443205e+04  -3.679636492059511e+04   1.082980689649946e+00   1.434009628202077e+00  -2.150754922487351e+00  -1.464470934667095e-05
2017-01-01T07:22:20.000  -3.295106393054046e+04  -3.681786638720397e+04   1.082834008092047e+00   1.435099000000819e+00  -2.149538360239250e+00  -1.469160313874852e-05
2017-01-01T07:22:30.000  -3.293670749728879e+04  -3.683935568723612e+04   1.082686857567568e+00   1.436187471382770e+00  -2.148321563926427e+00  -1.473850236667196e-05
2017-01-01T07:22:40.000  -3.292234018368576e+04  -3.686083281834128e+04   1.082539238022193e+00   1.437275042822292e+00  -2.147104533989109e+00  -1.478540703276613e-05
2017-01-01T07:22:50.000  -3.290796199888222e+04  -3.688229777795709e+04   1.082391149403128e+00   1.438361714782445e+00  -2.145887270879117e+00  -1.483231713886278e-05
2017-01-01T07:23:00.000  -3.289357295198359e+04  -3.690375056358570e+04   1.082242591657130e+00   1.439447487728968e+00  -2.144669775044074e+00  -1.487923268691714e-05
2017-01-01T07:23:10.000  -3.287917305212497e+04  -3.692519117268253e+04   1.082093564731292e+00   1.440532362124654e+00  -2.143452046933749e+00  -1.492615367876125e-05
2017-01-01T07:23:20.000  -3.286476230814079e+04  -3.694661960314822e+04   1.081944068569621e+00   1.441616338454243e+00  -2.142234086972107e+00  -1.497308011718702e-05
2017-01-01T07:23:30.000  -3.285034072889586e+04  -3.696803585283535e+04   1.081794103116466e+00   1.442699417199453e+00  -2.141015895585331e+00  -1.502001200486089e-05
2017-01-01T07:23:40.000  -3.283590832320006e+04  -3.698943991967583e+04   1.081643668315633e+00   1.443781598845441e+00  -2.139797473194587e+00  -1.506694934460418e-05
2017-01-01T07:23:50.000  -3.282146510003760e+04  -3.701083180133778e+04   1.081492764112744e+00   1.444862883863414e+00  -2.138578820235456e+00  -1.511389213864028e-05
2017-01-01T07:24:00.000  -3.280701106837794e+04  -3.703221149550892e+04   1.081341390453292e+00   1.445943272724994e+00  -2.137359937141912e+00  -1.516084038921624e-05
2017-01-01T07:24:10.000  -3.279254623721945e+04  -3.705357899983117e+04   1.081189547283100e+00   1.447022765898904e+00  -2.136140824350008e+00  -1.520779409845933e-05
2017-01-01T07:24:20.000  -3.277807061557312e+04  -3.707493431192666e+04   1.081037234548168e+00   1.448101363852300e+00  -2.134921482296467e+00  -1.525475326843353e-05
2017-01-01T07:24:30.000  -3.276358421245383e+04  -3.709627742940911e+04   1.080884452194562e+00   1.449179067051328e+00  -2.133701911417984e+00  -1.530171790116480e-05
2017-01-01T07:24:40.000  -3.274908703686306e+04  -3.711760834990911e+04   1.080731200168234e+00   1.450255875962410e+00  -2.132482112149772e+00  -1.534868799869708e-05
2017-01-01T07:24:50.000  -3.273457909778141e+04  -3.713892707108714e+04   1.080577478414962e+00   1.451331791052904e+00  -2.131262084924884e+00  -1.539566356311990e-05
2017-01-01T07:25:00.000  -3.272006040415071e+04  -3.716023359065739e+04   1.080423286880134e+00   1.452406812792304e+00  -2.130041830172777e+00  -1.544264459662185e-05
2017-01-01T07:25:10.000  -3.270553096491853e+04  -3.718152790632373e+04   1.080268625509238e+00   1.453480941649000e+00  -2.128821348323013e+00  -1.548963110134916e-05
2017-01-01T07:25:20.000  -3.269099078884557e+04  -3.720281001605884e+04   1.080113494245767e+00   1.454554178104349e+00  -2.127600639789164e+00  -1.553662308001949e-05
2017-01-01T07:25:30.000  -3.267643988473884e+04  -3.722407991776556e+04   1.079957893033742e+00   1.455626522635598e+00  -2.126379704988318e+00  -1.558362053517763e-05
2017-01-01T07:25:40.000  -3.266187826136357e+04  -3.724533760940488e+04   1.079801821816765e+00   1.456697975722358e+00  -2.125158544333717e+00  -1.563062346947646e-05
2017-01-01T07:25:50.000  -3.264730592778366e+04  -3.726658308849901e+04   1.079645280541664e+00   1.457768537821534e+00  -2.123937158263299e+00  -1.567763188458716e-05
2017-01-01T07:26:00.000  -3.263272289302139e+04  -3.728781635262845e+04   1.079488269154849e+00   1.458838209392400e+00  -2.122715547211157e+00  -1.572464578228874e-05
2017-01-01T07:26:10.000  -3.261812916614514e+04  -3.730903739930360e+04   1.079330787603252e+00   1.459906990890111e+00  -2.121493711614903e+00  -1.577166516418792e-05
2017-01-01T07:26:20.000  -3.260352475603758e+04  -3.733024622630493e+04   1.079172835831863e+00   1.460974882782877e+00  -2.120271651896191e+00  -1.581869003245897e-05
2017-01-01T07:26:30.000  -3.258890967158679e+04  -3.735144283140201e+04   1.079014413785753e+00   1.462041885537776e+00  -2.119049368476786e+00  -1.586572038923511e-05
2017-01-01T07:26:40.000  -3.257428392164223e+04  -3.737262721241839e+04   1.078855521409610e+00   1.463107999624029e+00  -2.117826861774863e+00  -1.591275623674740e-05
2017-01-01T07:26:50.000  -3.255964751503112e+04  -3.739379936720563e+04   1.078696158647889e+00   1.464173225511678e+00  -2.116604132206429e+00  -1.595979757728016e-05
2017-01-01T07:27:00.000  -3.254500046056740e+04  -3.741495929363223e+04   1.078536325444936e+00   1.465237563671046e+00  -2.115381180186027e+00  -1.600684441313397e-05
2017-01-01T07:27:10.000  -3.253034276706911e+04  -3.743610698955826e+04   1.078376021745166e+00   1.466301014571453e+00  -2.114158006128195e+00  -1.605389674657309e-05
2017-01-01T07:27:20.000  -3.251567444336598e+04  -3.745724245282284e+04   1.078215247493140e+00   1.467363578680577e+00  -2.112934610448141e+00  -1.610095457978925e-05
2017-01-01T07:27:30.000  -3.250099549831759e+04  -3.747836568122004e+04   1.078054002633774e+00   1.468425256463261e+00  -2.111710993563198e+00  -1.614801791485602e-05
2017-01-01T07:27:40.000  -3.248630594076833e+04  -3.749947667256274e+04   1.077892287111847e+00   1.469486048384717e+00  -2.110487155889107e+00  -1.619508675386825e-05
2017-01-01T07:27:50.000  -3.247160577974200e+04  -3.752057542440568e+04   1.077730100874172e+00   1.470545954896630e+00  -2.109263097856160e+00  -1.624216109833145e-05
2017-01-01T07:28:00.000  -3.245689502420640e+04  -3.754166193438131e+04   1.077567443866966e+00   1.471604976454015e+00  -2.108038819889640e+00  -1.628924094990373e-05
2017-01-01T07:28:10.000  -3.244217368316061e+04  -3.756273620007472e+04   1.077404316036829e+00   1.472663113508935e+00  -2.106814322417097e+00  -1.633632631011991e-05
2017-01-01T07:28:20.000  -3.242744176529660e+04  -3.758379821950853e+04   1.077240717326994e+00   1.473720366534856e+00  -2.105589605840183e+00  -1.638341718146433e-05
2017-01-01T07:28:30.000  -3.241269927933679e+04  -3.760484799065922e+04   1.077076647681056e+00   1.474776736002349e+00  -2.104364670562744e+00  -1.643051356630080e-05
2017-01-01T07:28:40.000  -3.239794623395774e+04  -3.762588551156678e+04   1.076912107042144e+00   1.475832222384609e+00  -2.103139516984461e+00  -1.647761546711366e-05
2017-01-01T07:28:50.000  -3.238318263797976e+04  -3.764691078006067e+04   1.076747095354978e+00   1.476886826143667e+00  -2.101914145516687e+00  -1.652472288590842e-05
2017-01-01T07:29:00.000  -3.236840850022657e+04  -3.766792379396382e+04   1.076581612564358e+00   1.477940547740662e+00  -2.100688556570702e+00  -1.657183582465395e-05
